[{"OBJECT_NAME":"STARLINK-36425","OBJECT_ID":"2026-008Y","EPOCH":"2026-03-09T09:24:05.718240","MEAN_MOTION":15.27592602,"ECCENTRICITY":0.00018644,"INCLINATION":42.9947,"RA_OF_ASC_NODE":207.1682,"ARG_OF_PERICENTER":144.4244,"MEAN_ANOMALY":215.6732,"EPHEMERIS_TYPE":0,"CLASSIFICATION_TYPE":"U","NORAD_CAT_ID":67467,"ELEMENT_SET_NO":999,"REV_AT_EPOCH":952,"BSTAR":0.001005985,"MEAN_MOTION_DOT":0.00027535,"MEAN_MOTION_DDOT":0},{"OBJECT_NAME":"CZ-2C DEB","OBJECT_ID":"2018-056F","EPOCH":"2026-03-09T10:57:26.102304","MEAN_MOTION":15.27739248,"ECCENTRICITY":0.00119172,"INCLINATION":98.1188,"RA_OF_ASC_NODE":250.032,"ARG_OF_PERICENTER":4.6998,"MEAN_ANOMALY":355.4349,"EPHEMERIS_TYPE":0,"CLASSIFICATION_TYPE":"U","NORAD_CAT_ID":43534,"ELEMENT_SET_NO":999,"REV_AT_EPOCH":41855,"BSTAR":0.00085537155,"MEAN_MOTION_DOT":0.00023193,"MEAN_MOTION_DDOT":0}]
